{"type":"FeatureCollection","features":[{"type":"Feature","geometry":{"type":"MultiPolygon","coordinates":[[[[-9.21679,38.69156],[-9.21679,38.69219],[-9.21805,38.69219],[-9.21805,38.69282],[-9.21868,38.69282],[-9.21868,38.69345],[-9.21679,38.69345],[-9.21679,38.69282],[-9.21553,38.69282],[-9.21553,38.69345],[-9.21174,38.69345],[-9.21174,38.69472],[-9.21111,38.69472],[-9.21111,38.69345],[-9.20985,38.69345],[-9.20985,38.69472],[-9.20922,38.69472],[-9.20922,38.69345],[-9.20796,38.69345],[-9.20796,38.69282],[-9.21174,38.69282],[-9.21174,38.69219],[-9.2149,38.69219],[-9.2149,38.69156],[-9.21679,38.69156]]],[[[-9.22373,38.69219],[-9.22373,38.69282],[-9.2231,38.69282],[-9.2231,38.69345],[-9.22373,38.69345],[-9.22373,38.69408],[-9.22436,38.69408],[-9.22436,38.69472],[-9.22562,38.69472],[-9.22562,38.69535],[-9.2231,38.69535],[-9.2231,38.69472],[-9.2212,38.69472],[-9.2212,38.69345],[-9.21994,38.69345],[-9.21994,38.69282],[-9.22183,38.69282],[-9.22183,38.69219],[-9.22373,38.69219]]],[[[-9.20859,38.69535],[-9.20859,38.69472],[-9.20922,38.69472],[-9.20922,38.69535],[-9.20859,38.69535]]],[[[-9.2294,38.69598],[-9.22877,38.69598],[-9.22877,38.69472],[-9.2294,38.69472],[-9.2294,38.69598]]],[[[-9.22562,38.69598],[-9.22562,38.69535],[-9.22688,38.69535],[-9.22688,38.69598],[-9.22562,38.69598]]],[[[-9.20354,38.69661],[-9.20354,38.69598],[-9.2048,38.69598],[-9.2048,38.69661],[-9.20354,38.69661]]],[[[-9.20039,38.69724],[-9.19976,38.69724],[-9.19976,38.69661],[-9.20228,38.69661],[-9.20228,38.69535],[-9.20039,38.69535],[-9.20039,38.69598],[-9.19976,38.69598],[-9.19976,38.69535],[-9.19787,38.69535],[-9.19787,38.69472],[-9.20165,38.69472],[-9.20165,38.69408],[-9.2048,38.69408],[-9.2048,38.69345],[-9.20796,38.69345],[-9.20796,38.69472],[-9.20544,38.69472],[-9.20544,38.69535],[-9.20354,38.69535],[-9.20354,38.69598],[-9.20291,38.69598],[-9.20291,38.69724],[-9.20228,38.69724],[-9.20228,38.69787],[-9.20291,38.69787],[-9.20291,38.6985],[-9.20354,38.6985],[-9.20354,38.69976],[-9.20102,38.69976],[-9.20102,38.69913],[-9.20039,38.69913],[-9.20039,38.6985],[-9.20102,38.6985],[-9.20102,38.69787],[-9.20039,38.69787],[-9.20039,38.69724]]],[[[-9.22057,38.69913],[-9.22057,38.6985],[-9.2212,38.6985],[-9.2212,38.69913],[-9.22057,38.69913]]],[[[-9.22625,38.69976],[-9.22625,38.70039],[-9.22436,38.70039],[-9.22436,38.70102],[-9.22373,38.70102],[-9.22373,38.69976],[-9.22625,38.69976]]],[[[-9.22246,38.69976],[-9.2231,38.69976],[-9.2231,38.70102],[-9.22246,38.70102],[-9.22246,38.69976]]],[[[-9.21679,38.70481],[-9.21742,38.70481],[-9.21742,38.7067],[-9.21868,38.7067],[-9.21868,38.70733],[-9.21805,38.70733],[-9.21805,38.70796],[-9.21742,38.70796],[-9.21742,38.70859],[-9.21616,38.70859],[-9.21616,38.70922],[-9.21679,38.70922],[-9.21679,38.71048],[-9.21553,38.71048],[-9.21553,38.70859],[-9.2149,38.70859],[-9.2149,38.70796],[-9.21427,38.70796],[-9.21427,38.70733],[-9.21363,38.70733],[-9.21363,38.70607],[-9.21427,38.70607],[-9.21427,38.70544],[-9.21048,38.70544],[-9.21048,38.70481],[-9.21111,38.70481],[-9.21111,38.70418],[-9.21174,38.70418],[-9.21174,38.70355],[-9.21237,38.70355],[-9.21237,38.70165],[-9.21174,38.70165],[-9.21174,38.70102],[-9.21111,38.70102],[-9.21111,38.69976],[-9.20985,38.69976],[-9.20985,38.6985],[-9.21111,38.6985],[-9.21111,38.69787],[-9.20985,38.69787],[-9.20985,38.69598],[-9.21427,38.69598],[-9.21427,38.69535],[-9.21679,38.69535],[-9.21679,38.69598],[-9.21931,38.69598],[-9.21931,38.69661],[-9.21994,38.69661],[-9.21994,38.69913],[-9.22057,38.69913],[-9.22057,38.69976],[-9.2212,38.69976],[-9.2212,38.70102],[-9.22246,38.70102],[-9.22246,38.70165],[-9.2212,38.70165],[-9.2212,38.70228],[-9.21931,38.70228],[-9.21931,38.70292],[-9.21805,38.70292],[-9.21805,38.70355],[-9.21679,38.70355],[-9.21679,38.70481]],[[-9.213,38.70165],[-9.213,38.70102],[-9.21237,38.70102],[-9.21237,38.70165],[-9.213,38.70165]],[[-9.21363,38.70102],[-9.21363,38.70228],[-9.21427,38.70228],[-9.21427,38.70165],[-9.2149,38.70165],[-9.2149,38.70102],[-9.21427,38.70102],[-9.21427,38.70039],[-9.213,38.70039],[-9.213,38.70102],[-9.21363,38.70102]]],[[[-9.22373,38.70355],[-9.22373,38.70418],[-9.22246,38.70418],[-9.22246,38.70481],[-9.22183,38.70481],[-9.22183,38.70418],[-9.22057,38.70418],[-9.22057,38.70292],[-9.22246,38.70292],[-9.22246,38.70228],[-9.2231,38.70228],[-9.2231,38.70355],[-9.22373,38.70355]]],[[[-9.22183,38.7067],[-9.22183,38.70607],[-9.22246,38.70607],[-9.22246,38.7064],[-9.22246,38.7064],[-9.22224,38.70657],[-9.22218,38.7067],[-9.22183,38.7067]]],[[[-9.20796,38.70544],[-9.20922,38.70544],[-9.20922,38.70607],[-9.20859,38.70607],[-9.20859,38.70733],[-9.20796,38.70733],[-9.20796,38.70544]]],[[[-9.21742,38.71238],[-9.21742,38.71175],[-9.21868,38.71175],[-9.21868,38.71238],[-9.21742,38.71238]]],[[[-9.20922,38.71301],[-9.20922,38.71238],[-9.20985,38.71238],[-9.20985,38.71301],[-9.20922,38.71301]]],[[[-9.21553,38.71175],[-9.21553,38.71111],[-9.21679,38.71111],[-9.21679,38.71048],[-9.21742,38.71048],[-9.21742,38.71175],[-9.21616,38.71175],[-9.21616,38.71238],[-9.21553,38.71238],[-9.21553,38.71364],[-9.21616,38.71364],[-9.21616,38.7149],[-9.21679,38.7149],[-9.21679,38.71553],[-9.21553,38.71553],[-9.21553,38.7149],[-9.2149,38.7149],[-9.2149,38.71553],[-9.21363,38.71553],[-9.21363,38.71427],[-9.21427,38.71427],[-9.21427,38.71301],[-9.21363,38.71301],[-9.21363,38.71238],[-9.21237,38.71238],[-9.21237,38.71364],[-9.21111,38.71364],[-9.21111,38.71238],[-9.21048,38.71238],[-9.21048,38.71175],[-9.21553,38.71175]],[[-9.2149,38.71301],[-9.2149,38.71238],[-9.21427,38.71238],[-9.21427,38.71301],[-9.2149,38.71301]]],[[[-9.20291,38.71364],[-9.20291,38.71301],[-9.20544,38.71301],[-9.20544,38.71427],[-9.20417,38.71427],[-9.20417,38.71364],[-9.20291,38.71364]]],[[[-9.20544,38.7149],[-9.20544,38.71427],[-9.2067,38.71427],[-9.2067,38.7149],[-9.20544,38.7149]]],[[[-9.21742,38.71616],[-9.21742,38.71553],[-9.21805,38.71553],[-9.21805,38.71616],[-9.21742,38.71616]]],[[[-9.21363,38.71679],[-9.21237,38.71679],[-9.21237,38.71616],[-9.21363,38.71616],[-9.21363,38.71679]]],[[[-9.20985,38.71742],[-9.20985,38.71679],[-9.21048,38.71679],[-9.21048,38.71742],[-9.20985,38.71742]]],[[[-9.20165,38.71742],[-9.20165,38.71679],[-9.20228,38.71679],[-9.20228,38.71742],[-9.20165,38.71742]]],[[[-9.21111,38.71742],[-9.21111,38.71679],[-9.21237,38.71679],[-9.21237,38.71805],[-9.21048,38.71805],[-9.21048,38.71742],[-9.21111,38.71742]]],[[[-9.2149,38.71805],[-9.2149,38.71742],[-9.21616,38.71742],[-9.21616,38.71805],[-9.2149,38.71805]]],[[[-9.20859,38.71994],[-9.20859,38.71931],[-9.20922,38.71931],[-9.20922,38.71868],[-9.21111,38.71868],[-9.21111,38.71931],[-9.20985,38.71931],[-9.20985,38.71994],[-9.20859,38.71994]]],[[[-9.20354,38.72688],[-9.20354,38.72625],[-9.20417,38.72625],[-9.20417,38.72499],[-9.2048,38.72499],[-9.2048,38.72436],[-9.20544,38.72436],[-9.20544,38.72373],[-9.2048,38.72373],[-9.2048,38.72247],[-9.20607,38.72247],[-9.20607,38.7231],[-9.20796,38.7231],[-9.20796,38.72416],[-9.20795,38.72416],[-9.20796,38.72417],[-9.20796,38.72562],[-9.20844,38.72562],[-9.20859,38.72608],[-9.20859,38.72751],[-9.20906,38.72751],[-9.20922,38.72799],[-9.20922,38.72814],[-9.20796,38.72814],[-9.20796,38.72751],[-9.20733,38.72751],[-9.20733,38.72688],[-9.2067,38.72688],[-9.2067,38.72625],[-9.20607,38.72625],[-9.20607,38.72688],[-9.20354,38.72688]]],[[[-9.19787,38.72688],[-9.1966,38.72688],[-9.1966,38.72625],[-9.19787,38.72625],[-9.19787,38.72688]]],[[[-9.20859,38.73004],[-9.20859,38.72877],[-9.20922,38.72877],[-9.20922,38.73004],[-9.20859,38.73004]]],[[[-9.2048,38.73067],[-9.2048,38.72941],[-9.20607,38.72941],[-9.20607,38.72877],[-9.2067,38.72877],[-9.2067,38.73004],[-9.20544,38.73004],[-9.20544,38.73067],[-9.2048,38.73067]]],[[[-9.2048,38.73193],[-9.20417,38.73193],[-9.20417,38.73067],[-9.2048,38.73067],[-9.2048,38.73193]]],[[[-9.20228,38.73508],[-9.20228,38.73382],[-9.20291,38.73382],[-9.20291,38.73256],[-9.20354,38.73256],[-9.20354,38.73445],[-9.20291,38.73445],[-9.20291,38.73508],[-9.20228,38.73508]]],[[[-9.19913,38.73697],[-9.19913,38.73634],[-9.19976,38.73634],[-9.19976,38.73697],[-9.19913,38.73697]]],[[[-9.20039,38.73761],[-9.19976,38.73761],[-9.19976,38.73697],[-9.20039,38.73697],[-9.20039,38.73761]]],[[[-9.19724,38.74265],[-9.19724,38.74202],[-9.1985,38.74202],[-9.1985,38.74265],[-9.19724,38.74265]]],[[[-9.20039,38.74391],[-9.20039,38.74328],[-9.20165,38.74328],[-9.20165,38.74391],[-9.20039,38.74391]]],[[[-9.19976,38.74454],[-9.19976,38.74391],[-9.20039,38.74391],[-9.20039,38.74454],[-9.19976,38.74454]]],[[[-9.20291,38.74644],[-9.20291,38.7458],[-9.20354,38.7458],[-9.20354,38.74644],[-9.20291,38.74644]]],[[[-9.20039,38.7458],[-9.20039,38.74454],[-9.20291,38.74454],[-9.20291,38.7458],[-9.20228,38.7458],[-9.20228,38.74644],[-9.20291,38.74644],[-9.20291,38.74707],[-9.20354,38.74707],[-9.20354,38.7477],[-9.2048,38.7477],[-9.2048,38.74707],[-9.20607,38.74707],[-9.20607,38.74833],[-9.20544,38.74833],[-9.20544,38.74959],[-9.20417,38.74959],[-9.20417,38.75022],[-9.20291,38.75022],[-9.20291,38.74959],[-9.20228,38.74959],[-9.20228,38.74896],[-9.20165,38.74896],[-9.20165,38.74707],[-9.19976,38.74707],[-9.19976,38.7458],[-9.20039,38.7458]]],[[[-9.19724,38.75085],[-9.19724,38.75022],[-9.1985,38.75022],[-9.1985,38.75085],[-9.19724,38.75085]]],[[[-9.20165,38.75022],[-9.20291,38.75022],[-9.20291,38.75085],[-9.20228,38.75085],[-9.20228,38.75211],[-9.20165,38.75211],[-9.20165,38.75022]]],[[[-9.19913,38.75085],[-9.19913,38.75211],[-9.20039,38.75211],[-9.20039,38.75337],[-9.20165,38.75337],[-9.20165,38.75463],[-9.20228,38.75463],[-9.20228,38.75527],[-9.20039,38.75527],[-9.20039,38.7559],[-9.1966,38.7559],[-9.1966,38.754],[-9.19597,38.754],[-9.19597,38.75337],[-9.1966,38.75337],[-9.1966,38.75274],[-9.1985,38.75274],[-9.1985,38.75085],[-9.19913,38.75085]]],[[[-9.20291,38.754],[-9.20291,38.75337],[-9.20417,38.75337],[-9.20417,38.754],[-9.20291,38.754]]],[[[-9.20228,38.75463],[-9.20228,38.754],[-9.20291,38.754],[-9.20291,38.75463],[-9.20228,38.75463]]],[[[-9.19408,38.69598],[-9.19408,38.69535],[-9.19787,38.69535],[-9.19787,38.69598],[-9.19408,38.69598]]],[[[-9.19093,38.69661],[-9.19093,38.69598],[-9.19156,38.69598],[-9.19156,38.69661],[-9.19093,38.69661]]],[[[-9.18714,38.69724],[-9.18714,38.69661],[-9.18841,38.69661],[-9.18841,38.69724],[-9.18714,38.69724]]],[[[-9.18147,38.6985],[-9.18021,38.6985],[-9.18021,38.69787],[-9.18147,38.69787],[-9.18147,38.6985]]],[[[-9.18273,38.70355],[-9.18273,38.70292],[-9.18336,38.70292],[-9.18336,38.70355],[-9.18273,38.70355]]],[[[-9.18777,38.70418],[-9.18777,38.70355],[-9.18841,38.70355],[-9.18841,38.70418],[-9.18777,38.70418]]],[[[-9.18147,38.70418],[-9.18147,38.70355],[-9.1821,38.70355],[-9.1821,38.70418],[-9.18147,38.70418]]],[[[-9.18462,38.70544],[-9.18462,38.70481],[-9.18273,38.70481],[-9.18273,38.70418],[-9.18777,38.70418],[-9.18777,38.70481],[-9.18525,38.70481],[-9.18525,38.70544],[-9.18462,38.70544]]],[[[-9.19093,38.71111],[-9.19093,38.71048],[-9.19156,38.71048],[-9.19156,38.71111],[-9.19093,38.71111]]],[[[-9.18714,38.71111],[-9.18714,38.71048],[-9.18777,38.71048],[-9.18777,38.71111],[-9.18714,38.71111]]],[[[-9.18777,38.71238],[-9.18714,38.71238],[-9.18714,38.71175],[-9.18777,38.71175],[-9.18777,38.71238]]],[[[-9.19093,38.71238],[-9.19156,38.71238],[-9.19156,38.71301],[-9.19093,38.71301],[-9.19093,38.71238]]],[[[-9.19093,38.71364],[-9.1903,38.71364],[-9.1903,38.71301],[-9.19093,38.71301],[-9.19093,38.71364]]],[[[-9.18588,38.71364],[-9.18399,38.71364],[-9.18399,38.7149],[-9.18273,38.7149],[-9.18273,38.71427],[-9.18336,38.71427],[-9.18336,38.71238],[-9.18651,38.71238],[-9.18651,38.71301],[-9.18588,38.71301],[-9.18588,38.71364]]],[[[-9.19282,38.71616],[-9.19282,38.71238],[-9.19345,38.71238],[-9.19345,38.71616],[-9.19282,38.71616]]],[[[-9.17894,38.7149],[-9.17894,38.71553],[-9.17831,38.71553],[-9.17831,38.71301],[-9.17894,38.71301],[-9.17894,38.71427],[-9.18021,38.71427],[-9.18021,38.71364],[-9.1821,38.71364],[-9.1821,38.7149],[-9.17894,38.7149]]],[[[-9.18967,38.7149],[-9.18904,38.7149],[-9.18904,38.71427],[-9.18967,38.71427],[-9.18967,38.7149]]],[[[-9.18967,38.71553],[-9.18967,38.7149],[-9.1903,38.7149],[-9.1903,38.71553],[-9.18967,38.71553]]],[[[-9.19093,38.71553],[-9.19093,38.71679],[-9.1903,38.71679],[-9.1903,38.71553],[-9.19093,38.71553]]],[[[-9.18147,38.71742],[-9.18147,38.71679],[-9.18399,38.71679],[-9.18399,38.71805],[-9.18084,38.71805],[-9.18084,38.71742],[-9.18147,38.71742]]],[[[-9.18588,38.72058],[-9.18588,38.71994],[-9.18525,38.71994],[-9.18525,38.71931],[-9.18588,38.71931],[-9.18588,38.71868],[-9.18714,38.71868],[-9.18714,38.72058],[-9.18588,38.72058]]],[[[-9.19534,38.72058],[-9.19534,38.72121],[-9.19597,38.72121],[-9.19597,38.72184],[-9.1966,38.72184],[-9.1966,38.72247],[-9.19408,38.72247],[-9.19408,38.72058],[-9.19345,38.72058],[-9.19345,38.71931],[-9.19597,38.71931],[-9.19597,38.71994],[-9.1966,38.71994],[-9.1966,38.72058],[-9.19534,38.72058]]],[[[-9.18967,38.72184],[-9.18967,38.72121],[-9.1903,38.72121],[-9.1903,38.72184],[-9.18967,38.72184]]],[[[-9.17831,38.72184],[-9.17894,38.72184],[-9.17894,38.72121],[-9.18084,38.72121],[-9.18084,38.72247],[-9.17831,38.72247],[-9.17831,38.72184]]],[[[-9.18399,38.7231],[-9.18399,38.72247],[-9.18462,38.72247],[-9.18462,38.7231],[-9.18399,38.7231]]],[[[-9.19219,38.72562],[-9.19219,38.72499],[-9.19282,38.72499],[-9.19282,38.72562],[-9.19219,38.72562]]],[[[-9.18399,38.72877],[-9.18399,38.72814],[-9.18525,38.72814],[-9.18525,38.72877],[-9.18399,38.72877]]],[[[-9.18714,38.72814],[-9.18714,38.72941],[-9.18525,38.72941],[-9.18525,38.72877],[-9.18588,38.72877],[-9.18588,38.72814],[-9.18714,38.72814]]],[[[-9.18777,38.72941],[-9.18777,38.72877],[-9.1903,38.72877],[-9.1903,38.72941],[-9.18777,38.72941]]],[[[-9.18525,38.73193],[-9.18525,38.7313],[-9.18588,38.7313],[-9.18588,38.73193],[-9.18525,38.73193]]],[[[-9.19408,38.73382],[-9.19408,38.73445],[-9.19156,38.73445],[-9.19156,38.73382],[-9.19282,38.73382],[-9.19282,38.73193],[-9.19408,38.73193],[-9.19408,38.73256],[-9.19471,38.73256],[-9.19471,38.73382],[-9.19408,38.73382]]],[[[-9.19093,38.73508],[-9.19093,38.73445],[-9.19156,38.73445],[-9.19156,38.73508],[-9.19093,38.73508]]],[[[-9.18841,38.7395],[-9.18841,38.73761],[-9.18904,38.73761],[-9.18904,38.7395],[-9.18841,38.7395]]],[[[-9.18084,38.74013],[-9.18084,38.7395],[-9.18147,38.7395],[-9.18147,38.74013],[-9.18084,38.74013]]],[[[-9.17958,38.74013],[-9.17958,38.74076],[-9.17894,38.74076],[-9.17894,38.74013],[-9.17831,38.74013],[-9.17831,38.73887],[-9.17958,38.73887],[-9.17958,38.7395],[-9.18021,38.7395],[-9.18021,38.74013],[-9.17958,38.74013]]],[[[-9.18714,38.7395],[-9.18714,38.74013],[-9.18651,38.74013],[-9.18651,38.74076],[-9.18588,38.74076],[-9.18588,38.7395],[-9.18714,38.7395]]],[[[-9.18084,38.74013],[-9.18084,38.74076],[-9.18147,38.74076],[-9.18147,38.74139],[-9.18021,38.74139],[-9.18021,38.74013],[-9.18084,38.74013]]],[[[-9.1821,38.74202],[-9.18147,38.74202],[-9.18147,38.74139],[-9.1821,38.74139],[-9.1821,38.74202]]],[[[-9.18904,38.74454],[-9.18904,38.74391],[-9.1903,38.74391],[-9.1903,38.74454],[-9.18904,38.74454]]],[[[-9.18777,38.7458],[-9.18777,38.74454],[-9.18841,38.74454],[-9.18841,38.7458],[-9.18777,38.7458]]],[[[-9.1903,38.74959],[-9.1903,38.74896],[-9.18714,38.74896],[-9.18714,38.74833],[-9.18777,38.74833],[-9.18777,38.74644],[-9.18967,38.74644],[-9.18967,38.74707],[-9.1903,38.74707],[-9.1903,38.7477],[-9.19093,38.7477],[-9.19093,38.74833],[-9.19156,38.74833],[-9.19156,38.74959],[-9.19282,38.74959],[-9.19282,38.75022],[-9.19093,38.75022],[-9.19093,38.74959],[-9.1903,38.74959]],[[-9.18967,38.7477],[-9.18967,38.74833],[-9.1903,38.74833],[-9.1903,38.7477],[-9.18967,38.7477]]],[[[-9.19597,38.75022],[-9.19597,38.74959],[-9.1966,38.74959],[-9.1966,38.75022],[-9.19597,38.75022]]],[[[-9.19156,38.75148],[-9.19156,38.75085],[-9.19219,38.75085],[-9.19219,38.75148],[-9.19156,38.75148]]],[[[-9.1966,38.75211],[-9.1966,38.75085],[-9.19724,38.75085],[-9.19724,38.75211],[-9.1966,38.75211]]],[[[-9.17768,38.69913],[-9.17768,38.6985],[-9.17958,38.6985],[-9.17958,38.69913],[-9.17768,38.69913]]],[[[-9.17768,38.69913],[-9.17768,38.69976],[-9.17705,38.69976],[-9.17705,38.70039],[-9.17642,38.70039],[-9.17642,38.69976],[-9.17453,38.69976],[-9.17453,38.69913],[-9.17264,38.69913],[-9.17264,38.69976],[-9.17138,38.69976],[-9.17138,38.70039],[-9.17011,38.70039],[-9.17011,38.69976],[-9.17075,38.69976],[-9.17075,38.6985],[-9.17453,38.6985],[-9.17453,38.69787],[-9.17516,38.69787],[-9.17516,38.6985],[-9.17579,38.6985],[-9.17579,38.69913],[-9.17768,38.69913]]],[[[-9.16759,38.69976],[-9.16759,38.69913],[-9.17011,38.69913],[-9.17011,38.69976],[-9.16759,38.69976]]],[[[-9.16318,38.70355],[-9.16191,38.70355],[-9.16191,38.70102],[-9.16318,38.70102],[-9.16318,38.70039],[-9.16381,38.70039],[-9.16381,38.69976],[-9.16759,38.69976],[-9.16759,38.70165],[-9.16696,38.70165],[-9.16696,38.70228],[-9.16759,38.70228],[-9.16759,38.70292],[-9.1657,38.70292],[-9.1657,38.70165],[-9.16507,38.70165],[-9.16507,38.70228],[-9.16444,38.70228],[-9.16444,38.70292],[-9.16318,38.70292],[-9.16318,38.70355]]],[[[-9.16822,38.70165],[-9.16822,38.70228],[-9.16759,38.70228],[-9.16759,38.70165],[-9.16822,38.70165]]],[[[-9.17894,38.70607],[-9.17894,38.70544],[-9.17958,38.70544],[-9.17958,38.70607],[-9.17894,38.70607]]],[[[-9.17075,38.71238],[-9.17075,38.71175],[-9.17138,38.71175],[-9.17138,38.71238],[-9.17075,38.71238]]],[[[-9.17138,38.70796],[-9.17138,38.70922],[-9.17075,38.70922],[-9.17075,38.71048],[-9.17011,38.71048],[-9.17011,38.71111],[-9.16885,38.71111],[-9.16885,38.71048],[-9.16759,38.71048],[-9.16759,38.70985],[-9.16696,38.70985],[-9.16696,38.71048],[-9.1657,38.71048],[-9.1657,38.70985],[-9.16444,38.70985],[-9.16444,38.71048],[-9.16255,38.71048],[-9.16255,38.71111],[-9.16191,38.71111],[-9.16191,38.71175],[-9.16255,38.71175],[-9.16255,38.71238],[-9.16128,38.71238],[-9.16128,38.71427],[-9.16191,38.71427],[-9.16191,38.71616],[-9.16255,38.71616],[-9.16255,38.71427],[-9.16381,38.71427],[-9.16381,38.71553],[-9.16507,38.71553],[-9.16507,38.71616],[-9.1657,38.71616],[-9.1657,38.71742],[-9.16696,38.71742],[-9.16696,38.71805],[-9.1657,38.71805],[-9.1657,38.71868],[-9.16444,38.71868],[-9.16444,38.71805],[-9.16128,38.71805],[-9.16128,38.71742],[-9.16191,38.71742],[-9.16191,38.71679],[-9.16065,38.71679],[-9.16065,38.71805],[-9.16002,38.71805],[-9.16002,38.71616],[-9.15939,38.71616],[-9.15939,38.71742],[-9.15876,38.71742],[-9.15876,38.71679],[-9.15813,38.71679],[-9.15813,38.71616],[-9.15561,38.71616],[-9.15561,38.71553],[-9.15245,38.71553],[-9.15245,38.7149],[-9.15119,38.7149],[-9.15119,38.71427],[-9.15245,38.71427],[-9.15245,38.71301],[-9.15308,38.71301],[-9.15308,38.71175],[-9.15372,38.71175],[-9.15372,38.71111],[-9.15308,38.71111],[-9.15308,38.71048],[-9.15435,38.71048],[-9.15435,38.70985],[-9.15372,38.70985],[-9.15372,38.70922],[-9.15561,38.70922],[-9.15561,38.71048],[-9.15687,38.71048],[-9.15687,38.70985],[-9.15939,38.70985],[-9.15939,38.70922],[-9.15876,38.70922],[-9.15876,38.70859],[-9.15939,38.70859],[-9.15939,38.70796],[-9.16002,38.70796],[-9.16002,38.7067],[-9.16128,38.7067],[-9.16128,38.70544],[-9.1657,38.70544],[-9.1657,38.70607],[-9.16822,38.70607],[-9.16822,38.7067],[-9.17011,38.7067],[-9.17011,38.70796],[-9.17138,38.70796]],[[-9.16128,38.70796],[-9.16191,38.70796],[-9.16191,38.7067],[-9.16128,38.7067],[-9.16128,38.70796]],[[-9.16128,38.71048],[-9.16128,38.70922],[-9.16002,38.70922],[-9.16002,38.71048],[-9.16128,38.71048]],[[-9.16822,38.70796],[-9.16822,38.70733],[-9.16759,38.70733],[-9.16759,38.70796],[-9.16822,38.70796]]],[[[-9.17642,38.71427],[-9.17642,38.71301],[-9.17768,38.71301],[-9.17768,38.7149],[-9.17705,38.7149],[-9.17705,38.71427],[-9.17642,38.71427]]],[[[-9.16822,38.71679],[-9.16822,38.71616],[-9.16885,38.71616],[-9.16885,38.71679],[-9.16822,38.71679]]],[[[-9.17642,38.71553],[-9.17579,38.71553],[-9.17579,38.71742],[-9.17516,38.71742],[-9.17516,38.7231],[-9.17264,38.7231],[-9.17264,38.72247],[-9.17327,38.72247],[-9.17327,38.71994],[-9.1739,38.71994],[-9.1739,38.71805],[-9.17453,38.71805],[-9.17453,38.71553],[-9.1739,38.71553],[-9.1739,38.71616],[-9.17264,38.71616],[-9.17264,38.71553],[-9.17075,38.71553],[-9.17075,38.7149],[-9.17011,38.7149],[-9.17011,38.71427],[-9.17138,38.71427],[-9.17138,38.71238],[-9.17327,38.71238],[-9.17327,38.71301],[-9.1739,38.71301],[-9.1739,38.71427],[-9.17579,38.71427],[-9.17579,38.7149],[-9.17642,38.7149],[-9.17642,38.71553]],[[-9.17516,38.71553],[-9.17516,38.7149],[-9.17453,38.7149],[-9.17453,38.71553],[-9.17516,38.71553]],[[-9.17138,38.7149],[-9.17264,38.7149],[-9.17264,38.71427],[-9.17138,38.71427],[-9.17138,38.7149]]],[[[-9.16885,38.71805],[-9.16885,38.71868],[-9.16822,38.71868],[-9.16822,38.71931],[-9.16759,38.71931],[-9.16759,38.71805],[-9.16885,38.71805]]],[[[-9.17579,38.71931],[-9.17579,38.71805],[-9.17642,38.71805],[-9.17642,38.71931],[-9.17579,38.71931]]],[[[-9.16128,38.71931],[-9.16128,38.71868],[-9.16191,38.71868],[-9.16191,38.71931],[-9.16128,38.71931]]],[[[-9.17075,38.72058],[-9.17011,38.72058],[-9.17011,38.71994],[-9.16885,38.71994],[-9.16885,38.71931],[-9.17138,38.71931],[-9.17138,38.71994],[-9.17075,38.71994],[-9.17075,38.72058]]],[[[-9.17705,38.72058],[-9.17768,38.72058],[-9.17768,38.7231],[-9.17705,38.7231],[-9.17705,38.72373],[-9.17831,38.72373],[-9.17831,38.72436],[-9.17642,38.72436],[-9.17642,38.72499],[-9.17453,38.72499],[-9.17453,38.72436],[-9.17516,38.72436],[-9.17516,38.72373],[-9.17579,38.72373],[-9.17579,38.72247],[-9.17642,38.72247],[-9.17642,38.71994],[-9.17705,38.71994],[-9.17705,38.72058]]],[[[-9.1739,38.72625],[-9.17327,38.72625],[-9.17327,38.72499],[-9.17453,38.72499],[-9.17453,38.72562],[-9.1739,38.72562],[-9.1739,38.72625]]],[[[-9.16444,38.72688],[-9.16444,38.72625],[-9.16507,38.72625],[-9.16507,38.72688],[-9.16444,38.72688]]],[[[-9.17327,38.72751],[-9.17327,38.72688],[-9.1739,38.72688],[-9.1739,38.72751],[-9.17327,38.72751]]],[[[-9.17264,38.72814],[-9.17264,38.72751],[-9.17327,38.72751],[-9.17327,38.72814],[-9.17264,38.72814]]],[[[-9.16948,38.72814],[-9.16948,38.72751],[-9.17011,38.72751],[-9.17011,38.72814],[-9.16948,38.72814]]],[[[-9.17516,38.73193],[-9.17453,38.73193],[-9.17453,38.73256],[-9.1739,38.73256],[-9.1739,38.73067],[-9.17327,38.73067],[-9.17327,38.72877],[-9.17453,38.72877],[-9.17453,38.7313],[-9.17516,38.7313],[-9.17516,38.73193]]],[[[-9.17958,38.73382],[-9.17958,38.73508],[-9.17894,38.73508],[-9.17894,38.73445],[-9.17831,38.73445],[-9.17831,38.73382],[-9.17579,38.73382],[-9.17579,38.73319],[-9.17894,38.73319],[-9.17894,38.73382],[-9.17958,38.73382]]],[[[-9.17705,38.73697],[-9.17705,38.73824],[-9.17831,38.73824],[-9.17831,38.73887],[-9.17453,38.73887],[-9.17453,38.73761],[-9.1739,38.73761],[-9.1739,38.73571],[-9.17453,38.73571],[-9.17453,38.73634],[-9.17642,38.73634],[-9.17642,38.73697],[-9.17705,38.73697]]],[[[-9.16759,38.74391],[-9.16822,38.74391],[-9.16822,38.74328],[-9.16948,38.74328],[-9.16948,38.74265],[-9.17075,38.74265],[-9.17075,38.74202],[-9.17264,38.74202],[-9.17264,38.74265],[-9.17327,38.74265],[-9.17327,38.74454],[-9.17516,38.74454],[-9.17516,38.7458],[-9.1739,38.7458],[-9.1739,38.74707],[-9.17327,38.74707],[-9.17327,38.74644],[-9.16822,38.74644],[-9.16822,38.74517],[-9.16696,38.74517],[-9.16696,38.74454],[-9.16759,38.74454],[-9.16759,38.74391]]],[[[-9.17831,38.75148],[-9.17831,38.75274],[-9.17894,38.75274],[-9.17894,38.75148],[-9.17958,38.75148],[-9.17958,38.75337],[-9.18021,38.75337],[-9.18021,38.754],[-9.17958,38.754],[-9.17958,38.75463],[-9.17894,38.75463],[-9.17894,38.75527],[-9.17642,38.75527],[-9.17642,38.75463],[-9.17579,38.75463],[-9.17579,38.75337],[-9.1739,38.75337],[-9.1739,38.75274],[-9.17642,38.75274],[-9.17642,38.75148],[-9.17831,38.75148]]],[[[-9.17327,38.75463],[-9.17327,38.754],[-9.1739,38.754],[-9.1739,38.75463],[-9.17327,38.75463]]],[[[-9.16948,38.75968],[-9.16822,38.75968],[-9.16822,38.76094],[-9.16633,38.76094],[-9.16633,38.76031],[-9.16696,38.76031],[-9.16696,38.75968],[-9.16759,38.75968],[-9.16759,38.75905],[-9.16948,38.75905],[-9.16948,38.75968]]],[[[-9.17327,38.76094],[-9.17327,38.76031],[-9.1739,38.76031],[-9.1739,38.76094],[-9.17327,38.76094]]],[[[-9.17705,38.76157],[-9.17705,38.76094],[-9.17831,38.76094],[-9.17831,38.76157],[-9.17705,38.76157]]],[[[-9.17516,38.76157],[-9.1739,38.76157],[-9.1739,38.76094],[-9.17516,38.76094],[-9.17516,38.76157]]],[[[-9.17642,38.7622],[-9.17579,38.7622],[-9.17579,38.76094],[-9.17516,38.76094],[-9.17516,38.76031],[-9.17705,38.76031],[-9.17705,38.76094],[-9.17642,38.76094],[-9.17642,38.76157],[-9.17705,38.76157],[-9.17705,38.76283],[-9.17642,38.76283],[-9.17642,38.7622]]],[[[-9.17264,38.7704],[-9.17264,38.77166],[-9.17201,38.77166],[-9.17201,38.77293],[-9.17075,38.77293],[-9.17075,38.7723],[-9.17011,38.7723],[-9.17011,38.77166],[-9.17075,38.77166],[-9.17075,38.76977],[-9.17579,38.76977],[-9.17579,38.77293],[-9.17516,38.77293],[-9.17516,38.7723],[-9.17327,38.7723],[-9.17327,38.77166],[-9.1739,38.77166],[-9.1739,38.77103],[-9.17327,38.77103],[-9.17327,38.7704],[-9.17264,38.7704]]],[[[-9.16822,38.77293],[-9.16822,38.7723],[-9.16948,38.7723],[-9.16948,38.77293],[-9.16822,38.77293]]],[[[-9.17453,38.77419],[-9.1739,38.77419],[-9.1739,38.77356],[-9.17453,38.77356],[-9.17453,38.77419]]],[[[-9.17327,38.77356],[-9.17327,38.77419],[-9.17201,38.77419],[-9.17201,38.77482],[-9.17138,38.77482],[-9.17138,38.77608],[-9.17201,38.77608],[-9.17201,38.77734],[-9.17264,38.77734],[-9.17264,38.77797],[-9.17011,38.77797],[-9.17011,38.77671],[-9.16885,38.77671],[-9.16885,38.77608],[-9.16948,38.77608],[-9.16948,38.77545],[-9.17075,38.77545],[-9.17075,38.77356],[-9.17327,38.77356]]],[[[-9.16444,38.77608],[-9.16444,38.77545],[-9.16507,38.77545],[-9.16507,38.77482],[-9.16633,38.77482],[-9.16633,38.77419],[-9.16822,38.77419],[-9.16822,38.77356],[-9.17011,38.77356],[-9.17011,38.77482],[-9.16822,38.77482],[-9.16822,38.77608],[-9.16633,38.77608],[-9.16633,38.77734],[-9.16759,38.77734],[-9.16759,38.77671],[-9.16822,38.77671],[-9.16822,38.7786],[-9.16759,38.7786],[-9.16759,38.77797],[-9.16696,38.77797],[-9.16696,38.7786],[-9.16633,38.7786],[-9.16633,38.77923],[-9.16507,38.77923],[-9.16507,38.77797],[-9.16444,38.77797],[-9.16444,38.7786],[-9.16318,38.7786],[-9.16318,38.77671],[-9.16381,38.77671],[-9.16381,38.77608],[-9.16444,38.77608]]],[[[-9.1739,38.77923],[-9.1739,38.7786],[-9.17453,38.7786],[-9.17453,38.77923],[-9.1739,38.77923]]],[[[-9.17264,38.77923],[-9.17264,38.7786],[-9.17327,38.7786],[-9.17327,38.77923],[-9.17264,38.77923]]],[[[-9.16381,38.78113],[-9.16381,38.78176],[-9.16191,38.78176],[-9.16191,38.78113],[-9.16128,38.78113],[-9.16128,38.77986],[-9.16381,38.77986],[-9.16381,38.78049],[-9.16444,38.78049],[-9.16444,38.78113],[-9.16381,38.78113]]],[[[-9.16885,38.78302],[-9.16885,38.78239],[-9.16948,38.78239],[-9.16948,38.78302],[-9.16885,38.78302]]],[[[-9.16759,38.78428],[-9.16759,38.78365],[-9.16822,38.78365],[-9.16822,38.78428],[-9.16759,38.78428]]],[[[-9.16822,38.78491],[-9.16822,38.78428],[-9.16885,38.78428],[-9.16885,38.78491],[-9.16822,38.78491]]],[[[-9.16696,38.78491],[-9.16696,38.78428],[-9.16759,38.78428],[-9.16759,38.78491],[-9.16696,38.78491]]],[[[-9.15939,38.70355],[-9.15939,38.70292],[-9.16002,38.70292],[-9.16002,38.70355],[-9.15939,38.70355]]],[[[-9.14425,38.70544],[-9.14425,38.70481],[-9.14678,38.70481],[-9.14678,38.70544],[-9.14425,38.70544]]],[[[-9.14047,38.70607],[-9.14047,38.70544],[-9.14173,38.70544],[-9.14173,38.70607],[-9.14047,38.70607]]],[[[-9.14804,38.70607],[-9.14804,38.70544],[-9.14867,38.70544],[-9.14867,38.70607],[-9.14804,38.70607]]],[[[-9.15056,38.70607],[-9.14993,38.70607],[-9.14993,38.70544],[-9.15056,38.70544],[-9.15056,38.70607]]],[[[-9.13795,38.7067],[-9.13795,38.70607],[-9.13858,38.70607],[-9.13858,38.7067],[-9.13795,38.7067]]],[[[-9.15687,38.70796],[-9.15687,38.7067],[-9.15813,38.7067],[-9.15813,38.70796],[-9.15687,38.70796]]],[[[-9.15876,38.70859],[-9.15813,38.70859],[-9.15813,38.70796],[-9.15876,38.70796],[-9.15876,38.70859]]],[[[-9.13606,38.71048],[-9.13669,38.71048],[-9.13669,38.71111],[-9.13606,38.71111],[-9.13606,38.71048]]],[[[-9.13606,38.71175],[-9.13542,38.71175],[-9.13542,38.71111],[-9.13606,38.71111],[-9.13606,38.71175]]],[[[-9.14047,38.71175],[-9.13921,38.71175],[-9.13921,38.71111],[-9.14047,38.71111],[-9.14047,38.71175]]],[[[-9.14741,38.71364],[-9.14741,38.71301],[-9.14804,38.71301],[-9.14804,38.71364],[-9.14741,38.71364]]],[[[-9.15056,38.71427],[-9.15056,38.71364],[-9.15119,38.71364],[-9.15119,38.71427],[-9.15056,38.71427]]],[[[-9.14804,38.7149],[-9.14804,38.71364],[-9.1493,38.71364],[-9.1493,38.7149],[-9.14804,38.7149]]],[[[-9.13353,38.71238],[-9.13353,38.71175],[-9.13542,38.71175],[-9.13542,38.71301],[-9.13606,38.71301],[-9.13606,38.71553],[-9.13479,38.71553],[-9.13479,38.71616],[-9.1329,38.71616],[-9.1329,38.71679],[-9.13227,38.71679],[-9.13227,38.71805],[-9.13101,38.71805],[-9.13101,38.71616],[-9.13038,38.71616],[-9.13038,38.71679],[-9.12975,38.71679],[-9.12975,38.71301],[-9.13038,38.71301],[-9.13038,38.71238],[-9.13353,38.71238]]],[[[-9.15435,38.71679],[-9.15435,38.71616],[-9.15561,38.71616],[-9.15561,38.71679],[-9.15435,38.71679]]],[[[-9.15245,38.71679],[-9.15245,38.71616],[-9.15372,38.71616],[-9.15372,38.71679],[-9.15245,38.71679]]],[[[-9.15624,38.71742],[-9.15561,38.71742],[-9.15561,38.71679],[-9.15624,38.71679],[-9.15624,38.71742]]],[[[-9.15687,38.71805],[-9.15687,38.71742],[-9.15813,38.71742],[-9.15813,38.71805],[-9.15687,38.71805]]],[[[-9.15876,38.71868],[-9.15876,38.71805],[-9.16002,38.71805],[-9.16002,38.71868],[-9.15876,38.71868]]],[[[-9.15372,38.71931],[-9.15372,38.71805],[-9.15498,38.71805],[-9.15498,38.71931],[-9.15372,38.71931]]],[[[-9.13101,38.72121],[-9.13101,38.71994],[-9.13353,38.71994],[-9.13353,38.72121],[-9.13101,38.72121]]],[[[-9.13164,38.72499],[-9.13164,38.72436],[-9.13227,38.72436],[-9.13227,38.72499],[-9.13164,38.72499]]],[[[-9.14236,38.72562],[-9.14236,38.72499],[-9.1411,38.72499],[-9.1411,38.72436],[-9.14362,38.72436],[-9.14362,38.72499],[-9.14425,38.72499],[-9.14425,38.72562],[-9.14236,38.72562]]],[[[-9.14362,38.72751],[-9.14236,38.72751],[-9.14236,38.72625],[-9.14362,38.72625],[-9.14362,38.72751]]],[[[-9.15624,38.73382],[-9.15624,38.73319],[-9.15687,38.73319],[-9.15687,38.73634],[-9.15624,38.73634],[-9.15624,38.73697],[-9.15498,38.73697],[-9.15498,38.73761],[-9.15119,38.73761],[-9.15119,38.73824],[-9.15056,38.73824],[-9.15056,38.73887],[-9.1493,38.73887],[-9.1493,38.74076],[-9.14804,38.74076],[-9.14804,38.74013],[-9.14741,38.74013],[-9.14741,38.74076],[-9.14489,38.74076],[-9.14489,38.74139],[-9.14678,38.74139],[-9.14678,38.74202],[-9.14173,38.74202],[-9.14173,38.74139],[-9.1411,38.74139],[-9.1411,38.74076],[-9.14236,38.74076],[-9.14236,38.74013],[-9.1411,38.74013],[-9.1411,38.73887],[-9.14047,38.73887],[-9.14047,38.73571],[-9.13921,38.73571],[-9.13921,38.73445],[-9.14047,38.73445],[-9.14047,38.73382],[-9.13921,38.73382],[-9.13921,38.73193],[-9.1411,38.73193],[-9.1411,38.7313],[-9.14173,38.7313],[-9.14173,38.73193],[-9.14236,38.73193],[-9.14236,38.73067],[-9.14173,38.73067],[-9.14173,38.73004],[-9.14425,38.73004],[-9.14425,38.72941],[-9.14236,38.72941],[-9.14236,38.72877],[-9.14425,38.72877],[-9.14425,38.72814],[-9.14362,38.72814],[-9.14362,38.72751],[-9.14425,38.72751],[-9.14425,38.72562],[-9.14489,38.72562],[-9.14489,38.72499],[-9.14678,38.72499],[-9.14678,38.7231],[-9.14552,38.7231],[-9.14552,38.72247],[-9.14489,38.72247],[-9.14489,38.72121],[-9.14362,38.72121],[-9.14362,38.71994],[-9.14236,38.71994],[-9.14236,38.71931],[-9.14173,38.71931],[-9.14173,38.72121],[-9.14047,38.72121],[-9.14047,38.72184],[-9.1411,38.72184],[-9.1411,38.72247],[-9.14047,38.72247],[-9.14047,38.7231],[-9.13921,38.7231],[-9.13921,38.72247],[-9.13795,38.72247],[-9.13795,38.72184],[-9.13921,38.72184],[-9.13921,38.72121],[-9.13858,38.72121],[-9.13858,38.72058],[-9.13921,38.72058],[-9.13921,38.71931],[-9.14047,38.71931],[-9.14047,38.71742],[-9.1411,38.71742],[-9.1411,38.71679],[-9.14236,38.71679],[-9.14236,38.71553],[-9.14425,38.71553],[-9.14425,38.71616],[-9.14552,38.71616],[-9.14552,38.7149],[-9.14678,38.7149],[-9.14678,38.71553],[-9.14741,38.71553],[-9.14741,38.7149],[-9.14804,38.7149],[-9.14804,38.71553],[-9.1493,38.71553],[-9.1493,38.7149],[-9.14993,38.7149],[-9.14993,38.71427],[-9.15056,38.71427],[-9.15056,38.7149],[-9.15119,38.7149],[-9.15119,38.71553],[-9.15245,38.71553],[-9.15245,38.71616],[-9.15119,38.71616],[-9.15119,38.71679],[-9.15245,38.71679],[-9.15245,38.71742],[-9.15119,38.71742],[-9.15119,38.71805],[-9.15245,38.71805],[-9.15245,38.71868],[-9.15308,38.71868],[-9.15308,38.72121],[-9.15245,38.72121],[-9.15245,38.72184],[-9.15372,38.72184],[-9.15372,38.72247],[-9.15498,38.72247],[-9.15498,38.72184],[-9.15687,38.72184],[-9.15687,38.72121],[-9.15876,38.72121],[-9.15876,38.72184],[-9.1575,38.72184],[-9.1575,38.72247],[-9.15813,38.72247],[-9.15813,38.7231],[-9.15876,38.7231],[-9.15876,38.72373],[-9.15939,38.72373],[-9.15939,38.72436],[-9.16002,38.72436],[-9.16002,38.72247],[-9.16191,38.72247],[-9.16191,38.72373],[-9.16255,38.72373],[-9.16255,38.72436],[-9.16191,38.72436],[-9.16191,38.72499],[-9.16255,38.72499],[-9.16255,38.72625],[-9.15939,38.72625],[-9.15939,38.72499],[-9.15876,38.72499],[-9.15876,38.72562],[-9.15813,38.72562],[-9.15813,38.72751],[-9.15876,38.72751],[-9.15876,38.72877],[-9.15813,38.72877],[-9.15813,38.73004],[-9.15624,38.73004],[-9.15624,38.73067],[-9.15561,38.73067],[-9.15561,38.73382],[-9.15624,38.73382]],[[-9.14047,38.73508],[-9.1411,38.73508],[-9.1411,38.73445],[-9.14047,38.73445],[-9.14047,38.73508]],[[-9.14678,38.72562],[-9.14741,38.72562],[-9.14741,38.72499],[-9.14678,38.72499],[-9.14678,38.72562]],[[-9.14552,38.72562],[-9.14552,38.72625],[-9.14678,38.72625],[-9.14678,38.72562],[-9.14552,38.72562]],[[-9.15687,38.72751],[-9.15687,38.72814],[-9.15813,38.72814],[-9.15813,38.72751],[-9.15687,38.72751]],[[-9.1493,38.73634],[-9.14804,38.73634],[-9.14804,38.73697],[-9.1493,38.73697],[-9.1493,38.73634]],[[-9.14804,38.73193],[-9.1493,38.73193],[-9.1493,38.7313],[-9.14993,38.7313],[-9.14993,38.73004],[-9.14804,38.73004],[-9.14804,38.73067],[-9.14741,38.73067],[-9.14741,38.7313],[-9.14804,38.7313],[-9.14804,38.73193]],[[-9.14993,38.72562],[-9.1493,38.72562],[-9.1493,38.72625],[-9.14993,38.72625],[-9.14993,38.72562]]],[[[-9.13227,38.72941],[-9.13227,38.72877],[-9.1329,38.72877],[-9.1329,38.72941],[-9.13227,38.72941]]],[[[-9.13164,38.73067],[-9.13164,38.72941],[-9.13227,38.72941],[-9.13227,38.73004],[-9.13353,38.73004],[-9.13353,38.72751],[-9.13542,38.72751],[-9.13542,38.72814],[-9.13669,38.72814],[-9.13669,38.72877],[-9.13795,38.72877],[-9.13795,38.73004],[-9.13606,38.73004],[-9.13606,38.72877],[-9.13542,38.72877],[-9.13542,38.72941],[-9.13479,38.72941],[-9.13479,38.7313],[-9.13227,38.7313],[-9.13227,38.73193],[-9.13038,38.73193],[-9.13038,38.73256],[-9.12912,38.73256],[-9.12912,38.7313],[-9.12786,38.7313],[-9.12786,38.73067],[-9.12722,38.73067],[-9.12722,38.73004],[-9.12975,38.73004],[-9.12975,38.73067],[-9.13164,38.73067]]],[[[-9.14804,38.7313],[-9.14804,38.73067],[-9.1493,38.73067],[-9.1493,38.7313],[-9.14804,38.7313]]],[[[-9.13606,38.7313],[-9.13606,38.73067],[-9.13669,38.73067],[-9.13669,38.7313],[-9.13606,38.7313]]],[[[-9.13858,38.73887],[-9.13858,38.73824],[-9.13921,38.73824],[-9.13921,38.73887],[-9.13858,38.73887]]],[[[-9.1329,38.73824],[-9.12786,38.73824],[-9.12786,38.73761],[-9.12912,38.73761],[-9.12912,38.73697],[-9.12975,38.73697],[-9.12975,38.73508],[-9.13164,38.73508],[-9.13164,38.73571],[-9.13353,38.73571],[-9.13353,38.73634],[-9.13479,38.73634],[-9.13479,38.73697],[-9.13542,38.73697],[-9.13542,38.73761],[-9.13669,38.73761],[-9.13669,38.73824],[-9.13606,38.73824],[-9.13606,38.73887],[-9.13795,38.73887],[-9.13795,38.74013],[-9.13858,38.74013],[-9.13858,38.74139],[-9.13921,38.74139],[-9.13921,38.74202],[-9.13858,38.74202],[-9.13858,38.74265],[-9.13921,38.74265],[-9.13921,38.74328],[-9.13858,38.74328],[-9.13858,38.74391],[-9.13921,38.74391],[-9.13921,38.74454],[-9.13795,38.74454],[-9.13795,38.74517],[-9.13606,38.74517],[-9.13606,38.74644],[-9.13542,38.74644],[-9.13542,38.74454],[-9.13479,38.74454],[-9.13479,38.74013],[-9.13227,38.74013],[-9.13227,38.73887],[-9.1329,38.73887],[-9.1329,38.73824]],[[-9.13732,38.74202],[-9.13732,38.74139],[-9.13542,38.74139],[-9.13542,38.74202],[-9.13732,38.74202]]],[[[-9.14047,38.74265],[-9.14047,38.74139],[-9.1411,38.74139],[-9.1411,38.74265],[-9.14047,38.74265]]],[[[-9.14489,38.74328],[-9.14489,38.74265],[-9.14678,38.74265],[-9.14678,38.74328],[-9.14489,38.74328]]],[[[-9.14804,38.754],[-9.14741,38.754],[-9.14741,38.75337],[-9.14678,38.75337],[-9.14678,38.75274],[-9.14489,38.75274],[-9.14489,38.75148],[-9.14425,38.75148],[-9.14425,38.75022],[-9.14489,38.75022],[-9.14489,38.74896],[-9.15056,38.74896],[-9.15056,38.75022],[-9.15182,38.75022],[-9.15182,38.75085],[-9.15056,38.75085],[-9.15056,38.75211],[-9.15182,38.75211],[-9.15182,38.75274],[-9.15245,38.75274],[-9.15245,38.75527],[-9.15182,38.75527],[-9.15182,38.754],[-9.1493,38.754],[-9.1493,38.75463],[-9.14804,38.75463],[-9.14804,38.754]],[[-9.15056,38.75274],[-9.15056,38.75337],[-9.15182,38.75337],[-9.15182,38.75274],[-9.15056,38.75274]]],[[[-9.13038,38.75463],[-9.13038,38.75337],[-9.12975,38.75337],[-9.12975,38.75274],[-9.13038,38.75274],[-9.13038,38.75085],[-9.12975,38.75085],[-9.12975,38.75022],[-9.13164,38.75022],[-9.13164,38.75085],[-9.13227,38.75085],[-9.13227,38.75022],[-9.13353,38.75022],[-9.13353,38.74959],[-9.13606,38.74959],[-9.13606,38.75022],[-9.13542,38.75022],[-9.13542,38.75085],[-9.13353,38.75085],[-9.13353,38.75148],[-9.1329,38.75148],[-9.1329,38.75274],[-9.13479,38.75274],[-9.13479,38.754],[-9.13858,38.754],[-9.13858,38.75463],[-9.13795,38.75463],[-9.13795,38.75527],[-9.13606,38.75527],[-9.13606,38.7559],[-9.13479,38.7559],[-9.13479,38.75653],[-9.13353,38.75653],[-9.13353,38.7559],[-9.1329,38.7559],[-9.1329,38.75653],[-9.13227,38.75653],[-9.13227,38.75527],[-9.13164,38.75527],[-9.13164,38.75463],[-9.13038,38.75463]]],[[[-9.15308,38.75653],[-9.15308,38.75463],[-9.15372,38.75463],[-9.15372,38.75653],[-9.15308,38.75653]]],[[[-9.13038,38.75716],[-9.12975,38.75716],[-9.12975,38.75653],[-9.13038,38.75653],[-9.13038,38.7559],[-9.13164,38.7559],[-9.13164,38.75716],[-9.13353,38.75716],[-9.13353,38.75968],[-9.1329,38.75968],[-9.1329,38.76094],[-9.13227,38.76094],[-9.13227,38.76031],[-9.13038,38.76031],[-9.13038,38.75905],[-9.12975,38.75905],[-9.12975,38.75842],[-9.13038,38.75842],[-9.13038,38.75716]]],[[[-9.15372,38.76346],[-9.15372,38.76283],[-9.15498,38.76283],[-9.15498,38.76346],[-9.15372,38.76346]]],[[[-9.15245,38.7704],[-9.15245,38.76977],[-9.15056,38.76977],[-9.15056,38.76914],[-9.15182,38.76914],[-9.15182,38.76788],[-9.15245,38.76788],[-9.15245,38.76725],[-9.15372,38.76725],[-9.15372,38.76599],[-9.15308,38.76599],[-9.15308,38.76536],[-9.15561,38.76536],[-9.15561,38.76725],[-9.1575,38.76725],[-9.1575,38.76788],[-9.15939,38.76788],[-9.15939,38.76851],[-9.16065,38.76851],[-9.16065,38.7704],[-9.15939,38.7704],[-9.15939,38.77166],[-9.15876,38.77166],[-9.15876,38.7723],[-9.1575,38.7723],[-9.1575,38.77166],[-9.15624,38.77166],[-9.15624,38.7723],[-9.15498,38.7723],[-9.15498,38.77166],[-9.15372,38.77166],[-9.15372,38.7704],[-9.15245,38.7704]]],[[[-9.15498,38.77356],[-9.15498,38.77293],[-9.15561,38.77293],[-9.15561,38.77356],[-9.15498,38.77356]]],[[[-9.15182,38.7786],[-9.15182,38.77797],[-9.15308,38.77797],[-9.15308,38.77923],[-9.15056,38.77923],[-9.15056,38.7786],[-9.15182,38.7786]]],[[[-9.15308,38.77986],[-9.15308,38.77923],[-9.15561,38.77923],[-9.15561,38.78049],[-9.15498,38.78049],[-9.15498,38.77986],[-9.15308,38.77986]]],[[[-9.16065,38.78176],[-9.16065,38.78113],[-9.16128,38.78113],[-9.16128,38.78176],[-9.16065,38.78176]]],[[[-9.13038,38.70859],[-9.12975,38.70859],[-9.12975,38.70796],[-9.13038,38.70796],[-9.13038,38.70859]]],[[[-9.12722,38.70859],[-9.12786,38.70859],[-9.12786,38.70922],[-9.12722,38.70922],[-9.12722,38.70859]]],[[[-9.12722,38.70985],[-9.12596,38.70985],[-9.12596,38.70922],[-9.12722,38.70922],[-9.12722,38.70985]]],[[[-9.12029,38.7149],[-9.12029,38.71427],[-9.12092,38.71427],[-9.12092,38.7149],[-9.12029,38.7149]]],[[[-9.12596,38.71616],[-9.12596,38.71553],[-9.12786,38.71553],[-9.12786,38.71616],[-9.12596,38.71616]]],[[[-9.11839,38.71679],[-9.11839,38.71616],[-9.11903,38.71616],[-9.11903,38.71679],[-9.11839,38.71679]]],[[[-9.12786,38.71805],[-9.12786,38.71742],[-9.12912,38.71742],[-9.12912,38.71805],[-9.12786,38.71805]]],[[[-9.13101,38.71994],[-9.13038,38.71994],[-9.13038,38.71931],[-9.13101,38.71931],[-9.13101,38.71994]]],[[[-9.11209,38.72184],[-9.11272,38.72184],[-9.11272,38.72247],[-9.11209,38.72247],[-9.11209,38.72184]]],[[[-9.11209,38.7231],[-9.11146,38.7231],[-9.11146,38.72247],[-9.11209,38.72247],[-9.11209,38.7231]]],[[[-9.11083,38.72373],[-9.11083,38.7231],[-9.11146,38.7231],[-9.11146,38.72373],[-9.11083,38.72373]]],[[[-9.13038,38.72436],[-9.13038,38.72373],[-9.13101,38.72373],[-9.13101,38.72436],[-9.13038,38.72436]]],[[[-9.13038,38.72562],[-9.13101,38.72562],[-9.13101,38.72625],[-9.13038,38.72625],[-9.13038,38.72562]]],[[[-9.13038,38.72751],[-9.12975,38.72751],[-9.12975,38.72625],[-9.13038,38.72625],[-9.13038,38.72751]]],[[[-9.10578,38.72751],[-9.10578,38.72688],[-9.10641,38.72688],[-9.10641,38.72751],[-9.10578,38.72751]]],[[[-9.12722,38.72877],[-9.12722,38.72814],[-9.12912,38.72814],[-9.12912,38.72877],[-9.12722,38.72877]]],[[[-9.10515,38.73067],[-9.10515,38.72751],[-9.10578,38.72751],[-9.10578,38.73067],[-9.10515,38.73067]]],[[[-9.12975,38.73004],[-9.12975,38.72941],[-9.13038,38.72941],[-9.13038,38.73004],[-9.12975,38.73004]]],[[[-9.10389,38.73193],[-9.10389,38.7313],[-9.10452,38.7313],[-9.10452,38.73193],[-9.10389,38.73193]]],[[[-9.102,38.73571],[-9.102,38.73445],[-9.10263,38.73445],[-9.10263,38.73634],[-9.10136,38.73634],[-9.10136,38.73571],[-9.102,38.73571]]],[[[-9.1001,38.74076],[-9.1001,38.74139],[-9.09884,38.74139],[-9.09884,38.74013],[-9.09947,38.74013],[-9.09947,38.7395],[-9.1001,38.7395],[-9.1001,38.73824],[-9.10073,38.73824],[-9.10073,38.74076],[-9.1001,38.74076]]],[[[-9.12659,38.74139],[-9.12596,38.74139],[-9.12596,38.74076],[-9.12659,38.74076],[-9.12659,38.74139]]],[[[-9.12407,38.74202],[-9.12407,38.74139],[-9.1247,38.74139],[-9.1247,38.74202],[-9.12407,38.74202]]],[[[-9.12722,38.74265],[-9.12722,38.74202],[-9.12786,38.74202],[-9.12786,38.74139],[-9.12975,38.74139],[-9.12975,38.74202],[-9.12912,38.74202],[-9.12912,38.74265],[-9.12722,38.74265]]],[[[-9.13101,38.74391],[-9.13101,38.74328],[-9.13164,38.74328],[-9.13164,38.74391],[-9.13101,38.74391]]],[[[-9.09884,38.74139],[-9.09884,38.74202],[-9.1001,38.74202],[-9.1001,38.74265],[-9.09821,38.74265],[-9.09821,38.74517],[-9.09758,38.74517],[-9.09758,38.7477],[-9.09695,38.7477],[-9.09695,38.74896],[-9.09632,38.74896],[-9.09632,38.74517],[-9.09695,38.74517],[-9.09695,38.74391],[-9.09758,38.74391],[-9.09758,38.74202],[-9.09821,38.74202],[-9.09821,38.74139],[-9.09884,38.74139]]],[[[-9.09506,38.75211],[-9.09506,38.75085],[-9.09569,38.75085],[-9.09569,38.75211],[-9.09506,38.75211]]],[[[-9.09064,38.76157],[-9.09064,38.75842],[-9.09127,38.75842],[-9.09127,38.75653],[-9.0919,38.75653],[-9.0919,38.75463],[-9.09253,38.75463],[-9.09253,38.75337],[-9.09506,38.75337],[-9.09506,38.7559],[-9.09569,38.7559],[-9.09569,38.75842],[-9.09506,38.75842],[-9.09506,38.76031],[-9.09569,38.76031],[-9.09569,38.76599],[-9.09506,38.76599],[-9.09506,38.76283],[-9.09253,38.76283],[-9.09253,38.76346],[-9.0919,38.76346],[-9.0919,38.76283],[-9.09127,38.76283],[-9.09127,38.76157],[-9.09064,38.76157]]],[[[-9.09695,38.76031],[-9.09569,38.76031],[-9.09569,38.75968],[-9.09695,38.75968],[-9.09695,38.76031]]],[[[-9.1102,38.76283],[-9.1102,38.7622],[-9.11146,38.7622],[-9.11146,38.76283],[-9.1102,38.76283]]],[[[-9.11272,38.76283],[-9.11272,38.76346],[-9.11146,38.76346],[-9.11146,38.76283],[-9.11272,38.76283]]],[[[-9.11272,38.76473],[-9.11272,38.7641],[-9.11398,38.7641],[-9.11398,38.76473],[-9.11272,38.76473]]],[[[-9.11146,38.7641],[-9.11146,38.76473],[-9.11209,38.76473],[-9.11209,38.76599],[-9.11146,38.76599],[-9.11146,38.76536],[-9.1102,38.76536],[-9.1102,38.76473],[-9.10956,38.76473],[-9.10956,38.76346],[-9.1102,38.76346],[-9.1102,38.7641],[-9.11146,38.7641]]],[[[-9.11461,38.76851],[-9.11461,38.76914],[-9.11398,38.76914],[-9.11398,38.76851],[-9.11272,38.76851],[-9.11272,38.76788],[-9.11398,38.76788],[-9.11398,38.76725],[-9.11461,38.76725],[-9.11461,38.76662],[-9.11272,38.76662],[-9.11272,38.76599],[-9.11398,38.76599],[-9.11398,38.76536],[-9.11461,38.76536],[-9.11461,38.76473],[-9.11524,38.76473],[-9.11524,38.76599],[-9.11713,38.76599],[-9.11713,38.76473],[-9.11587,38.76473],[-9.11587,38.7641],[-9.11839,38.7641],[-9.11839,38.76599],[-9.11903,38.76599],[-9.11903,38.76788],[-9.11839,38.76788],[-9.11839,38.76851],[-9.12029,38.76851],[-9.12029,38.76914],[-9.11903,38.76914],[-9.11903,38.76977],[-9.11839,38.76977],[-9.11839,38.76914],[-9.11776,38.76914],[-9.11776,38.76851],[-9.11713,38.76851],[-9.11713,38.76914],[-9.11587,38.76914],[-9.11587,38.76851],[-9.11461,38.76851]]],[[[-9.12092,38.76914],[-9.12092,38.76851],[-9.12155,38.76851],[-9.12155,38.76914],[-9.12092,38.76914]]],[[[-9.12092,38.76977],[-9.12029,38.76977],[-9.12029,38.76914],[-9.12092,38.76914],[-9.12092,38.76977]]],[[[-9.11776,38.7704],[-9.11776,38.76977],[-9.11839,38.76977],[-9.11839,38.7704],[-9.11776,38.7704]]],[[[-9.10956,38.77356],[-9.10956,38.77293],[-9.1102,38.77293],[-9.1102,38.77356],[-9.10956,38.77356]]],[[[-9.09127,38.77419],[-9.0919,38.77419],[-9.0919,38.77356],[-9.09127,38.77356],[-9.09127,38.77293],[-9.0919,38.77293],[-9.0919,38.76725],[-9.09253,38.76725],[-9.09253,38.76914],[-9.0938,38.76914],[-9.0938,38.76977],[-9.09443,38.76977],[-9.09443,38.76914],[-9.09569,38.76914],[-9.09569,38.77103],[-9.09758,38.77103],[-9.09758,38.77608],[-9.09695,38.77608],[-9.09695,38.77797],[-9.09758,38.77797],[-9.09758,38.77986],[-9.09821,38.77986],[-9.09821,38.78113],[-9.09758,38.78113],[-9.09758,38.78176],[-9.09695,38.78176],[-9.09695,38.78365],[-9.09443,38.78365],[-9.09443,38.78302],[-9.0938,38.78302],[-9.0938,38.78365],[-9.09253,38.78365],[-9.09253,38.78428],[-9.0938,38.78428],[-9.0938,38.78743],[-9.0919,38.78743],[-9.0919,38.78869],[-9.09127,38.78869],[-9.09127,38.78617],[-9.0919,38.78617],[-9.0919,38.78491],[-9.09127,38.78491],[-9.09127,38.77419]],[[-9.09443,38.7704],[-9.09506,38.7704],[-9.09506,38.76977],[-9.09443,38.76977],[-9.09443,38.7704]]],[[[-9.09443,38.78428],[-9.0938,38.78428],[-9.0938,38.78365],[-9.09443,38.78365],[-9.09443,38.78428]]],[[[-9.09064,38.79185],[-9.09064,38.79059],[-9.09127,38.79059],[-9.09127,38.79185],[-9.09064,38.79185]]],[[[-9.09253,38.795],[-9.09253,38.79563],[-9.09443,38.79563],[-9.09443,38.79626],[-9.09254,38.79626],[-9.09253,38.79621],[-9.09231,38.79618],[-9.09127,38.79618],[-9.09127,38.79563],[-9.09064,38.79563],[-9.09064,38.79248],[-9.09127,38.79248],[-9.09127,38.79437],[-9.0919,38.79437],[-9.0919,38.795],[-9.09253,38.795]]]]},"properties":{"class":0,"label":"Refúgio térmico","fill":"#2166ac"}}]}