{"type":"FeatureCollection","features":[{"type":"Feature","geometry":{"type":"MultiPolygon","coordinates":[[[[-9.1903,38.70733],[-9.19093,38.70733],[-9.19093,38.70796],[-9.1903,38.70796],[-9.1903,38.70733]]],[[[-9.18525,38.72941],[-9.18588,38.72941],[-9.18588,38.73067],[-9.18525,38.73067],[-9.18525,38.72941]]],[[[-9.18525,38.7313],[-9.18588,38.7313],[-9.18588,38.73067],[-9.18714,38.73067],[-9.18714,38.73004],[-9.18777,38.73004],[-9.18777,38.73193],[-9.18714,38.73193],[-9.18714,38.7313],[-9.18651,38.7313],[-9.18651,38.73193],[-9.18525,38.73193],[-9.18525,38.7313]]],[[[-9.18967,38.73004],[-9.18967,38.73256],[-9.1903,38.73256],[-9.1903,38.73319],[-9.19156,38.73319],[-9.19156,38.73382],[-9.1903,38.73382],[-9.1903,38.73445],[-9.18777,38.73445],[-9.18777,38.73382],[-9.18841,38.73382],[-9.18841,38.72941],[-9.1903,38.72941],[-9.1903,38.73004],[-9.18967,38.73004]]],[[[-9.19282,38.73256],[-9.19282,38.73319],[-9.19219,38.73319],[-9.19219,38.73256],[-9.19282,38.73256]]],[[[-9.18399,38.75148],[-9.18462,38.75148],[-9.18462,38.75274],[-9.18399,38.75274],[-9.18399,38.75148]]],[[[-9.18462,38.76157],[-9.18462,38.7622],[-9.18525,38.7622],[-9.18525,38.76157],[-9.18588,38.76157],[-9.18588,38.76346],[-9.18462,38.76346],[-9.18462,38.76283],[-9.18273,38.76283],[-9.18273,38.7622],[-9.18399,38.7622],[-9.18399,38.76157],[-9.18462,38.76157]]],[[[-9.17831,38.76599],[-9.17831,38.76788],[-9.17705,38.76788],[-9.17705,38.76599],[-9.17831,38.76599]]],[[[-9.17642,38.76788],[-9.17705,38.76788],[-9.17705,38.76851],[-9.17642,38.76851],[-9.17642,38.76788]]],[[[-9.17831,38.76851],[-9.17831,38.76914],[-9.17705,38.76914],[-9.17705,38.76851],[-9.17831,38.76851]]],[[[-9.18525,38.76977],[-9.18525,38.7704],[-9.18462,38.7704],[-9.18462,38.76977],[-9.18525,38.76977]]],[[[-9.17579,38.77293],[-9.17642,38.77293],[-9.17642,38.7723],[-9.17705,38.7723],[-9.17705,38.77103],[-9.17831,38.77103],[-9.17831,38.7704],[-9.17894,38.7704],[-9.17894,38.76977],[-9.17958,38.76977],[-9.17958,38.76914],[-9.1821,38.76914],[-9.1821,38.76851],[-9.18273,38.76851],[-9.18273,38.76914],[-9.18336,38.76914],[-9.18336,38.76977],[-9.18399,38.76977],[-9.18399,38.7704],[-9.18273,38.7704],[-9.18273,38.77166],[-9.1821,38.77166],[-9.1821,38.7723],[-9.17958,38.7723],[-9.17958,38.77166],[-9.17894,38.77166],[-9.17894,38.77293],[-9.18021,38.77293],[-9.18021,38.77356],[-9.17768,38.77356],[-9.17768,38.77419],[-9.17958,38.77419],[-9.17958,38.77482],[-9.17831,38.77482],[-9.17831,38.77545],[-9.17894,38.77545],[-9.17894,38.77608],[-9.17768,38.77608],[-9.17768,38.77545],[-9.17642,38.77545],[-9.17642,38.77356],[-9.17579,38.77356],[-9.17579,38.77293]]],[[[-9.18399,38.77293],[-9.18399,38.77356],[-9.18336,38.77356],[-9.18336,38.77293],[-9.18399,38.77293]]],[[[-9.18714,38.77356],[-9.18714,38.77419],[-9.18525,38.77419],[-9.18525,38.77356],[-9.18462,38.77356],[-9.18462,38.77293],[-9.18651,38.77293],[-9.18651,38.77356],[-9.18714,38.77356]]],[[[-9.18147,38.77293],[-9.1821,38.77293],[-9.1821,38.77419],[-9.18147,38.77419],[-9.18147,38.77293]]],[[[-9.18462,38.77419],[-9.18462,38.77482],[-9.18399,38.77482],[-9.18399,38.77419],[-9.18462,38.77419]]],[[[-9.17705,38.76914],[-9.17705,38.76977],[-9.17642,38.76977],[-9.17642,38.76914],[-9.17705,38.76914]]],[[[-9.17327,38.76977],[-9.1739,38.76977],[-9.1739,38.77103],[-9.17327,38.77103],[-9.17327,38.76977]]],[[[-9.17579,38.7704],[-9.17579,38.77103],[-9.17516,38.77103],[-9.17516,38.7704],[-9.17579,38.7704]]],[[[-9.17264,38.77103],[-9.17264,38.77166],[-9.17201,38.77166],[-9.17201,38.77103],[-9.17264,38.77103]]],[[[-9.17579,38.77166],[-9.17642,38.77166],[-9.17642,38.7723],[-9.17579,38.7723],[-9.17579,38.77166]]],[[[-9.17075,38.77545],[-9.17075,38.77419],[-9.17011,38.77419],[-9.17011,38.77356],[-9.17075,38.77356],[-9.17075,38.77293],[-9.17264,38.77293],[-9.17264,38.7723],[-9.17327,38.7723],[-9.17327,38.77166],[-9.1739,38.77166],[-9.1739,38.7723],[-9.17516,38.7723],[-9.17516,38.77356],[-9.17453,38.77356],[-9.17453,38.77419],[-9.17201,38.77419],[-9.17201,38.77482],[-9.17138,38.77482],[-9.17138,38.77608],[-9.17201,38.77608],[-9.17201,38.77671],[-9.17075,38.77671],[-9.17075,38.77797],[-9.16948,38.77797],[-9.16948,38.77671],[-9.17011,38.77671],[-9.17011,38.77545],[-9.17075,38.77545]],[[-9.17264,38.77356],[-9.17327,38.77356],[-9.17327,38.77293],[-9.17264,38.77293],[-9.17264,38.77356]]],[[[-9.17201,38.77734],[-9.17201,38.77671],[-9.17264,38.77671],[-9.17264,38.77734],[-9.17201,38.77734]]],[[[-9.1739,38.77671],[-9.17516,38.77671],[-9.17516,38.77734],[-9.17642,38.77734],[-9.17642,38.77671],[-9.17831,38.77671],[-9.17831,38.77797],[-9.17453,38.77797],[-9.17453,38.77923],[-9.1739,38.77923],[-9.1739,38.7786],[-9.17327,38.7786],[-9.17327,38.77797],[-9.1739,38.77797],[-9.1739,38.77671]]],[[[-9.16948,38.7786],[-9.16822,38.7786],[-9.16822,38.77923],[-9.16759,38.77923],[-9.16759,38.77671],[-9.16822,38.77671],[-9.16822,38.77797],[-9.16948,38.77797],[-9.16948,38.7786]]],[[[-9.17011,38.7786],[-9.17011,38.77923],[-9.16948,38.77923],[-9.16948,38.7786],[-9.17011,38.7786]]],[[[-9.16948,38.77923],[-9.16948,38.77986],[-9.16822,38.77986],[-9.16822,38.77923],[-9.16948,38.77923]]],[[[-9.16948,38.78049],[-9.16948,38.78113],[-9.16822,38.78113],[-9.16822,38.78049],[-9.16948,38.78049]]],[[[-9.15182,38.78554],[-9.15245,38.78554],[-9.15245,38.78617],[-9.15182,38.78617],[-9.15182,38.78554]]],[[[-9.15561,38.78617],[-9.15561,38.7868],[-9.15498,38.7868],[-9.15498,38.78617],[-9.15561,38.78617]]],[[[-9.1493,38.79311],[-9.1493,38.79248],[-9.14867,38.79248],[-9.14867,38.79185],[-9.14993,38.79185],[-9.14993,38.79311],[-9.1493,38.79311]]],[[[-9.14993,38.79374],[-9.15056,38.79374],[-9.15056,38.79437],[-9.14993,38.79437],[-9.14993,38.79374]]],[[[-9.10767,38.75337],[-9.10767,38.754],[-9.10704,38.754],[-9.10704,38.75337],[-9.10767,38.75337]]],[[[-9.14425,38.76031],[-9.14425,38.76094],[-9.14362,38.76094],[-9.14362,38.76031],[-9.14425,38.76031]]],[[[-9.12849,38.76914],[-9.12912,38.76914],[-9.12912,38.76977],[-9.12975,38.76977],[-9.12975,38.7704],[-9.13038,38.7704],[-9.13038,38.77103],[-9.12975,38.77103],[-9.12975,38.77166],[-9.13038,38.77166],[-9.13038,38.7723],[-9.12912,38.7723],[-9.12912,38.77293],[-9.12849,38.77293],[-9.12849,38.77103],[-9.12722,38.77103],[-9.12722,38.7704],[-9.12849,38.7704],[-9.12849,38.76914]]],[[[-9.13921,38.77671],[-9.13921,38.77734],[-9.13858,38.77734],[-9.13858,38.77671],[-9.13921,38.77671]]],[[[-9.13921,38.77797],[-9.13921,38.7786],[-9.13858,38.7786],[-9.13858,38.77797],[-9.13921,38.77797]]],[[[-9.13795,38.7786],[-9.13858,38.7786],[-9.13858,38.77923],[-9.13795,38.77923],[-9.13795,38.7786]]],[[[-9.13858,38.77986],[-9.13858,38.78049],[-9.13795,38.78049],[-9.13795,38.77986],[-9.13858,38.77986]]],[[[-9.14236,38.78176],[-9.14236,38.78239],[-9.14173,38.78239],[-9.14173,38.78365],[-9.13984,38.78365],[-9.13984,38.78113],[-9.13921,38.78113],[-9.13921,38.78049],[-9.1411,38.78049],[-9.1411,38.78176],[-9.14236,38.78176]]],[[[-9.14299,38.78365],[-9.14299,38.78302],[-9.14425,38.78302],[-9.14425,38.78428],[-9.14362,38.78428],[-9.14362,38.78365],[-9.14299,38.78365]]],[[[-9.14299,38.78365],[-9.14299,38.78554],[-9.14173,38.78554],[-9.14173,38.78491],[-9.14236,38.78491],[-9.14236,38.78428],[-9.14173,38.78428],[-9.14173,38.78365],[-9.14299,38.78365]]],[[[-9.14299,38.7868],[-9.14299,38.78743],[-9.14173,38.78743],[-9.14173,38.7868],[-9.14299,38.7868]]],[[[-9.14615,38.78743],[-9.14678,38.78743],[-9.14678,38.78806],[-9.14615,38.78806],[-9.14615,38.78743]]],[[[-9.09127,38.78932],[-9.09127,38.78869],[-9.0938,38.78869],[-9.0938,38.78996],[-9.09443,38.78996],[-9.09443,38.78932],[-9.09506,38.78932],[-9.09506,38.78996],[-9.09569,38.78996],[-9.09569,38.79059],[-9.09506,38.79059],[-9.09506,38.79122],[-9.09443,38.79122],[-9.09443,38.79185],[-9.0938,38.79185],[-9.0938,38.79311],[-9.09064,38.79311],[-9.09064,38.79248],[-9.09127,38.79248],[-9.09127,38.79122],[-9.09064,38.79122],[-9.09064,38.78932],[-9.09127,38.78932]]],[[[-9.14741,38.79311],[-9.14741,38.79248],[-9.14867,38.79248],[-9.14867,38.79374],[-9.1493,38.79374],[-9.1493,38.79437],[-9.14867,38.79437],[-9.14867,38.7948],[-9.14862,38.79478],[-9.14832,38.7947],[-9.14804,38.79475],[-9.14804,38.79437],[-9.14684,38.79437],[-9.14615,38.79413],[-9.14615,38.79374],[-9.14678,38.79374],[-9.14678,38.79311],[-9.14741,38.79311]]]]},"properties":{"class":0,"label":"Refúgio térmico","fill":"#2166ac"}}]}